{
    "links": {
        "self": "http://www.neowsapp.com/rest/v1/neo/3841978?api_key=iIulBulltgU6a56xZRHN4H3l9WmuAYTsLGpBGhQ2"
    },
    "id": "3841978",
    "neo_reference_id": "3841978",
    "name": "(2019 KR)",
    "designation": "2019 KR",
    "nasa_jpl_url": "http://ssd.jpl.nasa.gov/sbdb.cgi?sstr=3841978",
    "absolute_magnitude_h": 23.9,
    "estimated_diameter": {
        "kilometers": {
            "estimated_diameter_min": 0.04411182,
            "estimated_diameter_max": 0.0986370281
        },
        "meters": {
            "estimated_diameter_min": 44.1118199997,
            "estimated_diameter_max": 98.6370281305
        },
        "miles": {
            "estimated_diameter_min": 0.0274098057,
            "estimated_diameter_max": 0.0612901888
        },
        "feet": {
            "estimated_diameter_min": 144.7238235278,
            "estimated_diameter_max": 323.6123073718
        }
    },
    "is_potentially_hazardous_asteroid": false,
    "close_approach_data": [
        {
            "close_approach_date": "2019-05-21",
            "close_approach_date_full": "2019-May-21 15:00",
            "epoch_date_close_approach": 1558450800000,
            "relative_velocity": {
                "kilometers_per_second": "12.5846935405",
                "kilometers_per_hour": "45304.8967457798",
                "miles_per_hour": "28150.7009807319"
            },
            "miss_distance": {
                "astronomical": "0.056256194",
                "lunar": "21.883659466",
                "kilometers": "8415806.79670678",
                "miles": "5229339.855762364"
            },
            "orbiting_body": "Earth"
        },
        {
            "close_approach_date": "2139-05-31",
            "close_approach_date_full": "2139-May-31 21:09",
            "epoch_date_close_approach": 5346162540000,
            "relative_velocity": {
                "kilometers_per_second": "13.122332753",
                "kilometers_per_hour": "47240.3979107244",
                "miles_per_hour": "29353.3461351387"
            },
            "miss_distance": {
                "astronomical": "0.0679880717",
                "lunar": "26.4473598913",
                "kilometers": "10170870.711727279",
                "miles": "6319886.0032592902"
            },
            "orbiting_body": "Mars"
        }
    ],
    "orbital_data": {
        "orbit_id": "9",
        "orbit_determination_date": "2019-06-14 07:34:40",
        "first_observation_date": "2019-05-25",
        "last_observation_date": "2019-06-08",
        "data_arc_in_days": 14,
        "observations_used": 68,
        "orbit_uncertainty": "8",
        "minimum_orbit_intersection": ".0462849",
        "jupiter_tisserand_invariant": "4.530",
        "epoch_osculation": "2458635.5",
        "eccentricity": ".4493594462707483",
        "semi_major_axis": "1.450267486426574",
        "inclination": "2.940635577336653",
        "ascending_node_longitude": "174.3589036458348",
        "orbital_period": "637.9264255664525",
        "perihelion_distance": ".7985760917814588",
        "perihelion_argument": "352.3325713154935",
        "aphelion_distance": "2.101958881071689",
        "perihelion_time": "2458574.074527532926",
        "mean_anomaly": "34.66413868732754",
        "mean_motion": ".5643284014772312",
        "equinox": "J2000",
        "orbit_class": {
            "orbit_class_type": "APO",
            "orbit_class_description": "Near-Earth asteroid orbits which cross the Earth’s orbit similar to that of 1862 Apollo",
            "orbit_class_range": "a (semi-major axis) > 1.0 AU; q (perihelion) < 1.017 AU"
        }
    },
    "is_sentry_object": false
}